SENTINEL-5P             
1 42969U 17064A   24174.82469070  .00000102  00000+0  69034-4 0  9990
2 42969  98.7214 113.9435 0001189  77.7755 282.3555 14.19535837346791
SKYSAT-C11              
1 42987U 17068A   24174.89814358  .00015891  00000+0  40113-3 0  9991
2 42987  97.3597 301.2509 0001838 274.9213  85.1823 15.39917391371523
SKYSAT-C10              
1 42988U 17068B   24174.89001682  .00011782  00000+0  39179-3 0  9995
2 42988  97.3680 300.8306 0003489 169.1371 190.9947 15.31319359371468
SKYSAT-C9               
1 42989U 17068C   24174.74784588  .00001237  00000+0  42363-4 0  9997
2 42989  97.3582 299.1723 0012133 303.6424  56.3660 15.32082429371635
SKYSAT-C8               
1 42990U 17068D   24174.80354111  .00010955  00000+0  37666-3 0  9997
2 42990  97.3705 300.2985 0006129 115.2272 244.9605 15.30243431371403
SKYSAT-C7               
1 42991U 17068E   24174.90141397  .00011363  00000+0  38888-3 0  9990
2 42991  97.3705 300.7999 0007644  57.3105 302.8872 15.30374741371441
SKYSAT-C6               
1 42992U 17068F   24174.91827534  .00011044  00000+0  37796-3 0  9999
2 42992  97.3731 301.8444 0004031 217.4373 142.6587 15.30403745371485
CARTOSAT-2F             
1 43111U 18004A   24175.16627869  .00006013  00000+0  28802-3 0  9999
2 43111  97.4307 234.5600 0000392 171.8855 188.2386 15.19304785357409
GAOFEN-1 02             
1 43259U 18031A   24175.20592642  .00001196  00000+0  17819-3 0  9990
2 43259  97.8204 242.4973 0004228 143.3476 216.8024 14.76624581335862
GAOFEN-1 03             
1 43260U 18031B   24175.18432427  .00001172  00000+0  17501-3 0  9995
2 43260  97.8198 242.3963 0003604 210.1512 149.9491 14.76566067335852
GAOFEN-1 04             
1 43262U 18031D   24175.15985464  .00001176  00000+0  17557-3 0  9993
2 43262  97.8207 242.4794 0003843 168.2000 191.9301 14.76566673335847
SENTINEL-3B             
1 43437U 18039A   24174.81802124  .00000199  00000+0  10025-3 0  9995
2 43437  98.6278 241.6552 0000999 114.2414 245.8871 14.26730809320833
GAOFEN-5 01             
1 43461U 18043A   24174.83080294  .00000601  00000+0  13762-3 0  9994
2 43461  98.3560 125.3119 0002472 133.6677 226.4727 14.59169888325998
GAOFEN-6                
1 43484U 18048A   24175.20082490  .00001034  00000+0  15536-3 0  9998
2 43484  97.8636 249.4240 0010994   1.5583 358.5659 14.76523943326550
GAOFEN-11 01            
1 43585U 18063A   24175.17450345  .00008298  00000+0  28089-3 0  9997
2 43585  97.2313 240.9173 0009700  91.5557 268.6796 15.30798301328673
ICESAT-2                
1 43613U 18070A   24175.15506065  .00015985  00000+0  58260-3 0  9991
2 43613  92.0024  96.2526 0008998  57.2908 302.9208 15.28098116321888
HYSIS                   
1 43719U 18096A   24175.14483974  .00001676  00000+0  23503-3 0  9992
2 43719  97.8658 238.9218 0000389  48.0805 312.0440 14.78770975300425
KAZSTSAT                
1 43783U 18099AB  24174.73074949  .00001282  00000+0  11765-3 0  9998
2 43783  97.5262 225.5539 0006669 332.8411  27.2461 14.96505457302810
SAUDISAT 5A             
1 43831U 18102A   24175.18459285  .00004949  00000+0  26022-3 0  9992
2 43831  97.4077 240.6735 0013332 152.2740 207.9207 15.16042418305507
SAUDISAT 5B             
1 43833U 18102C   24175.15416602  .00004708  00000+0  24322-3 0  9991
2 43833  97.4125 242.4737 0013967 156.4649 203.7226 15.16688758305589
GAOFEN-10R              
1 44622U 19066A   24175.16840731  .00001577  00000+0  20683-3 0  9990
2 44622  97.9652 117.0930 0001014  98.0414 262.0914 14.81732367255100
CARTOSAT-3              
1 44804U 19081A   24175.17018640  .00005346  00000+0  25760-3 0  9995
2 44804  97.5320 232.9287 0012970 158.3497 201.8288 15.19091841253498
GAOFEN-12 01            
1 44819U 19082A   24175.19973801  .00000646  00000+0  89829-4 0  9998
2 44819  97.8228 189.1712 0001899 129.9758 230.1622 14.81056992246969
CSG-1                   
1 44873U 19092A   24175.13590852  .00000717  00000+0  96690-4 0  9997
2 44873  97.8867 358.1943 0001563  86.2318 273.9074 14.82142381244229
NUSAT-6 (HYPATIA)       
1 46272U 20061A   24175.19385052  .00073342  00000+0  75382-3 0  9998
2 46272  97.2305 249.7262 0002631 221.2940 138.8121 15.64662274212421
NEMO-HD                 
1 46277U 20061F   24175.16308421  .00006140  00000+0  23901-3 0  9997
2 46277  97.2966 237.7294 0003109 111.1640 248.9932 15.26348073210850
SENTINEL-6              
1 46984U 20086A   24174.46274241 -.00000036  00000+0  10837-3 0  9996
2 46984  66.0391 200.3128 0007951 270.2366  89.7738 12.80929108167503
GAOFEN-12 02            
1 48079U 21026A   24175.18921873  .00000668  00000+0  92939-4 0  9992
2 48079  97.9499 166.8211 0001271  75.6127 284.5226 14.81059815174633
PLEIADES NEO 3          
1 48268U 21034A   24175.17003178  .00001587  00000+0  20825-3 0  9994
2 48268  97.8934 249.3257 0001462 120.1071 240.0287 14.81674837170445
NUSAT-19 (ROSALIND)     
1 48905U 21059AC  24175.19486580  .00044715  00000+0  67977-3 0  9992
2 48905  97.5910 327.8322 0002926 333.8175  26.2930 15.54425845166777
PLEIADES NEO 4          
1 49070U 21073E   24175.20378958  .00001612  00000+0  21136-3 0  9999
2 49070  97.8934 249.3561 0001368 116.9849 243.1504 14.81673018154163
LANDSAT 9               
1 49260U 21088A   24174.80143940  .00000573  00000+0  13704-3 0  9999
2 49260  98.1871 244.3260 0001143 107.8213 252.3111 14.57143700145512
CSG-2                   
1 51444U 22008A   24175.16966391  .00000530  00000+0  73175-4 0  9994
2 51444  97.8864 358.2229 0001473  87.2816 272.8565 14.82161565129343
INS-2TD                 
1 51658U 22013C   24174.58894484  .00040812  00000+0  83846-3 0  9997
2 51658  97.5169 198.0616 0008691 127.2166 232.9877 15.45851268130832
GAOFEN-12 03            
1 52912U 22069A   24175.16438859  .00001845  00000+0  24396-3 0  9995
2 52912  97.9107  66.1220 0005681 115.2132 244.9670 14.81162686107492
SWOT                    
1 54754U 22173A   24175.15679922  .00000116  00000+0  80135-4 0  9998
2 54754  77.6109 292.6713 0000121 165.9808 194.1347 14.00172180 77825
GAOFEN-12 04            
1 57654U 23123A   24175.19802748  .00001620  00000+0  21534-3 0  9992
2 57654  97.9109  92.5723 0005221 157.8008 202.3432 14.81096441 45510
PARS 1                  
1 59065U 24039Q   24175.20354381  .00005921  00000+0  23243-3 0  9991
2 59065  97.3941 137.1275 0014339 179.1138 181.0129 15.26004608 17491
RESURS-P 4              
1 59371U 24061A   24175.13178568  .00004472  00000+0  14331-3 0  9997
2 59371  97.1866 128.0332 0002920  95.4562 264.7014 15.32859061 12835
SARSAT 7 (NOAA 15)      
1 25338U 98030A   24175.12810075  .00000301  00000+0  14256-3 0  9998
2 25338  98.5678 202.1307 0009292 311.9503  48.0885 14.26609040358286
GPS BIIR-08             
1 27663U 03005A   24175.18713476  .00000049  00000+0  00000+0 0  9999
2 27663  55.1021 243.7575 0136428  47.3826 323.5251  2.00574460156783
GPS BIIR-11             
1 28190U 04009A   24173.96101307 -.00000048  00000+0  00000+0 0  9998
2 28190  55.4505 304.8493 0098016 148.4228 216.1916  2.00559118148404
GPS BIIR-13             
1 28474U 04045A   24175.13804485 -.00000068  00000+0  00000+0 0  9993
2 28474  55.4264 353.9712 0161768 292.6295 247.2696  2.00561186143897
SARSAT 10 (NOAA 18)     
1 28654U 05018A   24175.15521457  .00000274  00000+0  16957-3 0  9991
2 28654  98.8745 252.0705 0014948  50.1079 310.1405 14.13236382984106
GPS BIIR-14M            
1 28874U 05038A   24173.42632189 -.00000048  00000+0  00000+0 0  9998
2 28874  55.4969 302.3322 0136156 284.1742  78.3475  2.00555102137289
METEOSAT-9 (MSG-2)      
1 28912U 05049B   24170.89274675  .00000150  00000+0  00000+0 0  9996
2 28912   7.6905  60.8403 0003099 222.0026 351.9854  1.00141344 67777
GOES 13                 
1 29155U 06018A   24174.77897265  .00000037  00000+0  00000+0 0  9994
2 29155   2.6400  85.2381 0080543 255.6641  60.7645  0.99089541 36082
GPS BIIR-16M            
1 29601U 06052A   24173.98610109  .00000054  00000+0  00000+0 0  9999
2 29601  55.1333 242.7832 0084918  83.1483 277.9065  2.00568079128863
GPS BIIR-17M            
1 32260U 07047A   24173.29069173 -.00000002  00000+0  00000+0 0  9996
2 32260  53.6091 110.0802 0155292  75.3733 286.3104  2.00563812122256
GPS BIIR-18M            
1 32384U 07062A   24174.86207593 -.00000042  00000+0  00000+0 0  9998
2 32384  55.6352 303.1383 0028639 151.8980  31.2277  2.00575148120983
SARSAT 12 (NOAA 19)     
1 33591U 09005A   24175.17823360  .00000254  00000+0  16082-3 0  9994
2 33591  99.0467 231.0407 0012743 275.4511  84.5207 14.13031787792477
GOES 14                 
1 35491U 09033A   24175.14490288 -.00000053  00000+0  00000+0 0  9999
2 35491   0.3533 103.5584 0004089 355.4037 116.4716  1.00272216 54895
GOES 15                 
1 36411U 10008A   24174.85396703  .00000053  00000+0  00000+0 0  9999
2 36411   0.3162  89.3420 0002274  94.3508  96.5072  1.00269306 52372
GSAT0101 (GALILEO-PFM)  
1 37846U 11060A   24170.30988477 -.00000070  00000+0  00000+0 0  9992
2 37846  57.1292   1.5021 0003526  50.5971 309.4706  1.70476027 78691
GSAT0102 (GALILEO-FM2)  
1 37847U 11060B   24173.46300551 -.00000065  00000+0  00000+0 0  9998
2 37847  57.1302   1.4171 0003087  15.2679 165.6168  1.70475382 78758
LUCH 5A                 
1 37951U 11074B   24175.17367796 -.00000040  00000+0  00000+0 0  9996
2 37951   6.8998  84.8870 0004284  13.6935  42.6565  1.00272547 45934
METEOSAT-10 (MSG-3)     
1 38552U 12035B   24175.16655566  .00000005  00000+0  00000+0 0  9996
2 38552   2.9780  61.0403 0000754 338.1678 292.7101  1.00267799 43951
SARSAT 13 (METOP-B)     
1 38771U 12049A   24175.15616512  .00000180  00000+0  10186-3 0  9995
2 38771  98.6275 232.2458 0001545  90.7456 269.3899 14.21441272610390
GPS BIIF-3              
1 38833U 12053A   24174.38479776  .00000086  00000+0  00000+0 0  9997
2 38833  53.5181 173.2566 0152006  55.8347 305.6111  2.00558699 84908
